OBJECT_NAME,OBJECT_ID,EPOCH,MEAN_MOTION,ECCENTRICITY,INCLINATION,RA_OF_ASC_NODE,ARG_OF_PERICENTER,MEAN_ANOMALY,EPHEMERIS_TYPE,CLASSIFICATION_TYPE,NORAD_CAT_ID,ELEMENT_SET_NO,REV_AT_EPOCH,BSTAR,MEAN_MOTION_DOT,MEAN_MOTION_DDOT
SL-16 R/B,1995-058B,2026-07-06T16:58:28.200576,14.15509056,.0014635,71.0222,290.3754,293.9269,66.0321,0,U,23705,999,58469,-.95571E-4,-.235E-5,0
SL-16 R/B,1996-051B,2026-07-06T17:15:36.040032,14.12453146,.0017103,70.7653,283.3134,309.2904,50.6699,0,U,24298,999,53845,.10272E-3,.141E-5,0
ORBVIEW 2 (SEASTAR),1997-037A,2026-07-06T11:11:01.538592,14.35563768,.00032925,98.8706,355.0209,77.8881,282.2673,0,U,24883,999,52551,.97107674E-4,.233E-5,0
SL-16 R/B,1998-043G,2026-07-06T09:02:46.256928,14.26071780,.00105043,98.8373,141.7021,35.7679,324.4202,0,U,25400,999,45590,.39408651E-4,.49E-6,0
SL-16 R/B,1998-045B,2026-07-06T17:31:51.164256,14.16207813,.00086,71.0126,291.2294,217.9363,142.1156,0,U,25407,999,44395,-.67491E-5,-.61E-6,0
ISS (ZARYA),1998-067A,2026-07-06T09:52:37.646112,15.48919590,.00067007,51.6304,204.9398,262.7897,97.2329,0,U,25544,999,57473,.12437599E-3,.6391E-4,0
CZ-4B R/B,1999-025C,2026-07-06T02:45:19.789632,14.18286655,.00371644,98.6474,228.4761,6.0166,52.4479,0,U,25732,999,40495,.3730589E-4,.34E-6,0
OKEAN-O,1999-039A,2026-07-06T03:16:51.017376,14.80490445,.00010665,97.9306,245.7162,73.5530,286.5799,0,U,25860,999,45191,.9022383E-4,.638E-5,0
SL-16 R/B,1999-039B,2026-07-06T03:22:52.276512,14.81864766,.00136999,97.9827,245.9491,229.4143,130.5878,0,U,25861,999,45440,.7681301E-4,.554E-5,0
DELTA 2 R/B,1999-041E,2026-07-06T08:34:20.829792,14.12060322,.0501185,51.7611,187.2110,338.6634,19.4041,0,U,25876,999,37979,.26858928E-3,.1434E-4,0
HELIOS 1B,1999-064A,2026-07-06T08:14:06.687744,14.88059925,.00023332,98.1597,93.0361,65.2545,294.8913,0,U,25977,999,70290,.17376679E-3,.1538E-4,0
TERRA,1999-068A,2026-07-06T08:12:58.671072,14.61118973,.00029798,97.9445,236.1282,140.4689,348.3967,0,U,25994,999,41240,.91496407E-4,.406E-5,0
SL-16 R/B,2000-006B,2026-07-06T08:28:01.854336,14.15840645,.00167856,71.0006,208.3262,352.6597,7.4278,0,U,26070,999,36535,-.65511695E-4,-.177E-5,0
TITAN 4B R/B,2000-047B,2026-07-06T06:23:34.862208,15.10304545,.00459831,67.9886,66.8659,267.6772,91.9113,0,U,26474,999,41081,.18444034E-3,.2965E-4,0
ENVISAT,2002-009A,2026-07-06T09:12:06.707808,14.39069481,.00013817,98.3842,138.2746,84.9409,46.5156,0,U,27386,999,27624,.48046276E-4,.106E-5,0
IDEFIX & ARIANE 42P R/B,2002-021B,2026-07-06T08:33:42.566688,14.31091143,.0011335,98.5942,124.6324,192.6749,167.4151,0,U,27422,999,26099,.10177791E-3,.225E-5,0
AQUA,2002-022A,2026-07-06T08:54:23.116896,14.62188364,.00007161,98.4288,157.0386,94.8885,67.0639,0,U,27424,999,28607,.1756413E-3,.835E-5,0
CZ-4B R/B,2002-024C,2026-07-06T04:52:49.194624,14.14567334,.00508832,98.8690,239.8991,47.2547,47.9340,0,U,27432,999,24599,.4325841E-4,.4E-6,0
MIDORI II (ADEOS-II),2002-056A,2026-07-06T07:38:32.637984,14.29360065,.00018249,98.7888,146.7418,52.1044,308.0302,0,U,27597,999,22724,.11986427E-3,.26E-5,0
H-2A R/B,2002-056E,2026-07-06T08:40:27.638400,14.33830791,.0070323,98.3322,143.3380,167.0672,354.7226,0,U,27601,999,23111,.96428447E-4,.234E-5,0
CZ-4B R/B,2003-049C,2026-07-06T00:05:20.571648,14.55112147,.00471585,98.6903,186.5998,229.7572,129.9495,0,U,28059,999,20380,.7996709E-4,.298E-5,0
CZ-2C R/B,2004-012C,2026-07-06T05:05:55.191840,15.83303506,.00112371,97.7062,265.1460,218.8056,141.2407,0,U,28222,999,22290,.61592491E-3,.134848E-2,0
SL-16 R/B,2004-021B,2026-07-06T11:10:34.085856,14.14613255,.00065322,71.0019,343.2284,232.5367,127.5162,0,U,28353,999,13963,.17803268E-3,.295E-5,0
CZ-4B R/B,2004-035C,2026-07-06T02:09:13.116096,15.30905884,.00288396,97.3358,219.9523,266.8169,92.9773,0,U,28415,999,19801,.27751919E-3,.8316E-4,0
CZ-2C R/B,2004-046B,2026-07-06T08:00:12.751488,14.27031374,.01396114,98.1928,94.9163,163.4984,197.0811,0,U,28480,999,12542,.58981809E-4,.119E-5,0
ARIANE 5 R/B,2004-049H,2026-07-06T11:05:50.259264,14.85472398,.00830964,98.2736,0.4616,326.9175,32.6857,0,U,28499,999,16342,.74424713E-4,.617E-5,0
CZ-2D R/B,2005-024B,2026-07-06T00:20:52.030176,15.71840543,.00008097,97.3474,207.4101,233.8674,126.2514,0,U,28738,999,15829,.54993551E-3,.71595E-3,0
ALOS (DAICHI),2006-002A,2026-07-06T08:28:08.359392,14.70090532,.00008127,98.1331,142.8616,74.0965,286.0331,0,U,28931,999,9091,.19837115E-3,.1142E-4,0
H-2A R/B,2006-002B,2026-07-06T10:21:56.291328,15.18351891,.00502092,98.2591,345.0074,195.8073,164.1594,0,U,28932,999,11244,.37493093E-3,.7877E-4,0
RESURS-DK 1,2006-021A,2026-07-06T08:05:19.635648,15.13298415,.00067198,69.9332,289.9803,280.9449,79.0961,0,U,29228,999,10547,.12767452E-3,.217E-4,0
