SL-16 R/B               
1 23705U 95058B   26187.70727084 -.00000235  00000+0 -95571-4 0  9995
2 23705  71.0222 290.3754 0014635 293.9269  66.0321 14.15509056584698
SL-16 R/B               
1 24298U 96051B   26187.71916713  .00000141  00000+0  10272-3 0  9995
2 24298  70.7653 283.3134 0017103 309.2904  50.6699 14.12453146538459
ORBVIEW 2 (SEASTAR)     
1 24883U 97037A   26187.46599003  .00000233  00000+0  97108-4 0  9997
2 24883  98.8706 355.0209 0003292  77.8881 282.2673 14.35563768525510
SL-16 R/B               
1 25400U 98043G   26187.37692427  .00000049  00000+0  39409-4 0  9990
2 25400  98.8373 141.7021 0010504  35.7679 324.4202 14.26071780455900
SL-16 R/B               
1 25407U 98045B   26187.73045329 -.00000061  00000+0 -67491-5 0  9991
2 25407  71.0126 291.2294 0008600 217.9363 142.1156 14.16207813443959
ISS (ZARYA)             
1 25544U 98067A   26187.41154683  .00006391  00000+0  12438-3 0  9995
2 25544  51.6304 204.9398 0006700 262.7897  97.2329 15.48919590574739
CZ-4B R/B               
1 25732U 99025C   26187.11481238  .00000034  00000+0  37306-4 0  9995
2 25732  98.6474 228.4761 0037164   6.0166  52.4479 14.18286655404958
OKEAN-O                 
1 25860U 99039A   26187.13670159  .00000638  00000+0  90224-4 0  9994
2 25860  97.9306 245.7162 0001066  73.5530 286.5799 14.80490445451915
SL-16 R/B               
1 25861U 99039B   26187.14088283  .00000554  00000+0  76813-4 0  9992
2 25861  97.9827 245.9491 0013699 229.4143 130.5878 14.81864766454403
DELTA 2 R/B             
1 25876U 99041E   26187.35718553  .00001434  00000+0  26859-3 0  9996
2 25876  51.7611 187.2110 0501185 338.6634  19.4041 14.12060322379799
HELIOS 1B               
1 25977U 99064A   26187.34313296  .00001538  00000+0  17377-3 0  9997
2 25977  98.1597  93.0361 0002333  65.2545 294.8913 14.88059925702906
TERRA                   
1 25994U 99068A   26187.34234573  .00000406  00000+0  91496-4 0  9998
2 25994  97.9445 236.1282 0002979 140.4689 348.3967 14.61118973412404
SL-16 R/B               
1 26070U 00006B   26187.35279924 -.00000177  00000+0 -65512-4 0  9995
2 26070  71.0006 208.3262 0016785 352.6597   7.4278 14.15840645365356
TITAN 4B R/B            
1 26474U 00047B   26187.26637572  .00002965  00000+0  18444-3 0  9991
2 26474  67.9886  66.8659 0045983 267.6772  91.9113 15.10304545410811
ENVISAT                 
1 27386U 02009A   26187.38341097  .00000106  00000+0  48046-4 0  9998
2 27386  98.3842 138.2746 0001381  84.9409  46.5156 14.39069481276243
IDEFIX & ARIANE 42P R/B 
1 27422U 02021B   26187.35674267  .00000225  00000+0  10178-3 0  9994
2 27422  98.5942 124.6324 0011335 192.6749 167.4151 14.31091143260997
AQUA                    
1 27424U 02022A   26187.37110089  .00000835  00000+0  17564-3 0  9999
2 27424  98.4288 157.0386 0000716  94.8885  67.0639 14.62188364286073
CZ-4B R/B               
1 27432U 02024C   26187.20334716  .00000040  00000+0  43258-4 0  9995
2 27432  98.8690 239.8991 0050883  47.2547  47.9340 14.14567334245998
MIDORI II (ADEOS-II)    
1 27597U 02056A   26187.31843331  .00000260  00000+0  11986-3 0  9998
2 27597  98.7888 146.7418 0001824  52.1044 308.0302 14.29360065227241
H-2A R/B                
1 27601U 02056E   26187.36143100  .00000234  00000+0  96428-4 0  9992
2 27601  98.3322 143.3380 0070323 167.0672 354.7226 14.33830791231117
CZ-4B R/B               
1 28059U 03049C   26187.00371032  .00000298  00000+0  79967-4 0  9990
2 28059  98.6903 186.5998 0047158 229.7572 129.9495 14.55112147203809
CZ-2C R/B               
1 28222U 04012C   26187.21244435  .00134848  00000+0  61592-3 0  9995
2 28222  97.7062 265.1460 0011237 218.8056 141.2407 15.83303506222905
SL-16 R/B               
1 28353U 04021B   26187.46567229  .00000295  00000+0  17803-3 0  9990
2 28353  71.0019 343.2284 0006532 232.5367 127.5162 14.14613255139639
CZ-4B R/B               
1 28415U 04035C   26187.08973514  .00008316  00000+0  27752-3 0  9996
2 28415  97.3358 219.9523 0028839 266.8169  92.9773 15.30905884198015
CZ-2C R/B               
1 28480U 04046B   26187.33348092  .00000119  00000+0  58982-4 0  9998
2 28480  98.1928  94.9163 0139611 163.4984 197.0811 14.27031374125422
ARIANE 5 R/B            
1 28499U 04049H   26187.46238726  .00000617  00000+0  74425-4 0  9990
2 28499  98.2736   0.4616 0083096 326.9175  32.6857 14.85472398163423
CZ-2D R/B               
1 28738U 05024B   26187.01449109  .00071595  00000+0  54994-3 0  9991
2 28738  97.3474 207.4101 0000809 233.8674 126.2514 15.71840543158293
ALOS (DAICHI)           
1 28931U 06002A   26187.35287453  .00001142  00000+0  19837-3 0  9990
2 28931  98.1331 142.8616 0000812  74.0965 286.0331 14.70090532 90913
H-2A R/B                
1 28932U 06002B   26187.43190152  .00007877  00000+0  37493-3 0  9998
2 28932  98.2591 345.0074 0050209 195.8073 164.1594 15.18351891112446
RESURS-DK 1             
1 29228U 06021A   26187.33703282  .00002170  00000+0  12767-3 0  9999
2 29228  69.9332 289.9803 0006719 280.9449  79.0961 15.13298415105473
